NORAD_CAT_ID,OBJECT_NAME,OBJECT_TYPE,EPOCH,MEAN_MOTION,ECCENTRICITY,INCLINATION,RA_OF_ASC_NODE,ARG_OF_PERICENTER,MEAN_ANOMALY,BSTAR,MEAN_MOTION_DOT,MEAN_MOTION_DDOT,TLE_LINE0,TLE_LINE1,TLE_LINE2,SEMIMAJOR_AXIS,PERIOD,APOGEE,PERIGEE,DECAYED
52123.0,STARLINK-3725,PAYLOAD,2022-08-31 14:00:01,15.08830994,0.0002210999999999,53.2161,82.6772,77.9483,320.523,0.0007744,0.00012055,0.0,0 STARLINK-3725,1 52123U 22029AM  22243.58334491  .00012055  00000-0  77440-3 0  9996,2 52123  53.2161  82.6772 0002211  77.9483 320.5230 15.08830994  1305,6917.908,95.438,541.302,538.243,0.0
52123.0,STARLINK-3725,PAYLOAD,2022-08-31 22:00:00,15.08822807,0.0002289,53.2161,81.1824,72.3475,337.7169,0.0011734,0.00018427,0.0,0 STARLINK-3725,1 52123U 22029AM  22243.91667824  .00018427  00000-0  11734-2 0  9994,2 52123  53.2161  81.1824 0002289  72.3475 337.7169 15.08822807 26821,6917.933000000001,95.439,541.381,538.214,0.0
52123.0,STARLINK-3725,PAYLOAD,2022-09-01 14:00:01,15.08847831,0.0002188,53.2164,78.188,79.8949,353.4072,0.0002110999999999,3.074e-05,0.0,0 STARLINK-3725,1 52123U 22029AM  22244.58335648  .00003074  00000-0  21110-3 0  9996,2 52123  53.2164  78.1880 0002188  79.8949 353.4072 15.08847831  1306,6917.856,95.437,541.235,538.2080000000002,0.0
52123.0,STARLINK-3725,PAYLOAD,2022-09-01 22:00:00,15.08831718,0.000224,53.2163,76.6933,74.2398,10.6096,0.0015351,0.00024222,0.0,0 STARLINK-3725,1 52123U 22029AM  22244.91667824  .00024222  00000-0  15351-2 0  9994,2 52123  53.2163  76.6933 0002240  74.2398  10.6096 15.08831718  1308,6917.906,95.438,541.32,538.221,0.0
52123.0,STARLINK-3725,PAYLOAD,2022-09-02 06:00:00,15.08861876,0.0002130999999999,53.2162,75.1955,78.2022,18.2446,-0.0020261,-0.00032409,0.0,0 STARLINK-3725,1 52123U 22029AM  22245.25001157 -.00032409  00000-0 -20261-2 0  9997,2 52123  53.2162  75.1955 0002131  78.2022  18.2446 15.08861876 27020,6917.814,95.436,541.153,538.2040000000002,0.0
52123.0,STARLINK-3725,PAYLOAD,2022-09-02 14:00:01,15.08848263,0.0002088,53.2164,73.699,81.7778,26.2748,-0.0016936,-0.00027148,0.0,0 STARLINK-3725,1 52123U 22029AM  22245.58334491 -.00027148  00000-0 -16936-2 0  9991,2 52123  53.2164  73.6990 0002088  81.7778  26.2748 15.08848263  1304,6917.855,95.437,541.165,538.276,0.0
52123.0,STARLINK-3725,PAYLOAD,2022-09-02 22:00:01,15.08811072,0.00021,53.2162,72.2043,75.2953,44.4191,0.002007,0.00031773,0.0,0 STARLINK-3725,1 52123U 22029AM  22245.91668981  .00031773  00000-0  20070-2 0  9993,2 52123  53.2162  72.2043 0002100  75.2953  44.4191 15.08811072  1306,6917.969,95.439,541.2869999999998,538.381,0.0
52123.0,STARLINK-3725,PAYLOAD,2022-09-03 06:00:00,15.08835873,0.0002021999999999,53.2161,70.7065,80.2196,51.0099,-0.00060641,-9.925e-05,0.0,0 STARLINK-3725,1 52123U 22029AM  22246.25001157 -.00009925  00000-0 -60641-3 0  9992,2 52123  53.2161  70.7065 0002022  80.2196  51.0099 15.08835873 27179,6917.893,95.438,541.1569999999998,538.359,0.0
52123.0,STARLINK-3725,PAYLOAD,2022-09-03 14:00:01,15.08848302,0.0002072,53.2162,69.2102,82.9249,59.886,-0.00068759,-0.00011217,0.0,0 STARLINK-3725,1 52123U 22029AM  22246.58334491 -.00011217  00000-0 -68759-3 0  9993,2 52123  53.2162  69.2102 0002072  82.9249  59.8860 15.08848302  1308,6917.855,95.437,541.153,538.2869999999998,0.0
52123.0,STARLINK-3725,PAYLOAD,2022-09-03 22:00:00,15.08821758,0.0002089,53.216,67.7154,76.0019,78.4185,0.0026771,0.00042555,0.0,0 STARLINK-3725,1 52123U 22029AM  22246.91667824  .00042555  00000-0  26771-2 0  9993,2 52123  53.2160  67.7154 0002089  76.0019  78.4185 15.08821758 27270,6917.936,95.439,541.246,538.356,0.0
52123.0,STARLINK-3725,PAYLOAD,2022-09-04 14:00:01,15.08868837,0.0002000999999999,53.216,64.7211,82.6324,95.0574,-0.0027203,-0.00043357,0.0,0 STARLINK-3725,1 52123U 22029AM  22247.58335648 -.00043357  00000-0 -27203-2 0  9997,2 52123  53.2160  64.7211 0002001  82.6324  95.0574 15.08868837  1309,6917.792,95.436,541.0409999999998,538.273,0.0
52123.0,STARLINK-3725,PAYLOAD,2022-09-04 20:00:01,15.08833508,0.0001988,53.2159,63.6002,76.2168,20.1237,0.00077151,0.0001200999999999,0.0,0 STARLINK-3725,1 52123U 22029AM  22247.83334491  .00012010  00000-0  77151-3 0  9998,2 52123  53.2159  63.6002 0001988  76.2168  20.1237 15.08833508  1303,6917.9,95.438,541.141,538.39,0.0
52123.0,STARLINK-3725,PAYLOAD,2022-09-05 06:00:00,15.08830103,0.0001798,53.216,61.7281,79.5185,121.3257,-0.0002582,-4.394e-05,0.0,0 STARLINK-3725,1 52123U 22029AM  22248.25001157 -.00004394  00000-0 -25820-3 0  9999,2 52123  53.2160  61.7281 0001798  79.5185 121.3257 15.08830103 27477,6917.911,95.438,541.019,538.5319999999998,0.0
52123.0,STARLINK-3725,PAYLOAD,2022-09-05 14:00:01,15.08849168,0.0001837,53.2161,60.232,80.7515,131.6687,-0.0010321,-0.00016681,0.0,0 STARLINK-3725,1 52123U 22029AM  22248.58334491 -.00016681  00000-0 -10321-2 0  9996,2 52123  53.2161  60.2320 0001837  80.7515 131.6687 15.08849168  1307,6917.852,95.437,540.988,538.447,0.0
52123.0,STARLINK-3725,PAYLOAD,2022-09-05 22:00:00,15.08810383,0.0001799,53.2161,58.737,72.2255,151.7981,0.0015442,0.00024354,0.0,0 STARLINK-3725,1 52123U 22029AM  22248.91667824  .00024354  00000-0  15442-2 0  9995,2 52123  53.2161  58.7370 0001799  72.2255 151.7981 15.08810383  1305,6917.971,95.439,541.08,538.591,0.0
52123.0,STARLINK-3725,PAYLOAD,2022-09-06 12:00:00,15.08831811,0.0001754,53.2165,56.1163,80.9906,73.2813,0.00073315,0.00011397,0.0,0 STARLINK-3725,1 52123U 22029AM  22249.50001157  .00011397  00000-0  73315-3 0  9999,2 52123  53.2165  56.1163 0001754  80.9906  73.2813 15.08831811 27669,6917.905,95.438,540.984,538.557,0.0
52123.0,STARLINK-3725,PAYLOAD,2022-09-06 14:00:01,15.08843972,0.0001746,53.2164,55.7427,78.9915,168.1743,-0.00084775,-0.00013756,0.0,0 STARLINK-3725,1 52123U 22029AM  22249.58334491 -.00013756  00000-0 -84775-3 0  9992,2 52123  53.2164  55.7427 0001746  78.9915 168.1743 15.08843972  1304,6917.868,95.437,540.941,538.525,0.0
52123.0,STARLINK-3725,PAYLOAD,2022-09-06 22:00:00,15.08825798,0.0001735,53.2164,54.2476,71.1664,187.5938,0.00099516,0.00015579,0.0,0 STARLINK-3725,1 52123U 22029AM  22249.91667824  .00015579  00000-0  99516-3 0  9990,2 52123  53.2164  54.2476 0001735  71.1664 187.5938 15.08825798  1303,6917.924,95.438,540.989,538.589,0.0
52123.0,STARLINK-3725,PAYLOAD,2022-09-07 06:00:00,15.08808256,0.0001576999999999,53.2166,52.7493,77.3008,193.0533,0.0012799,0.00020123,0.0,0 STARLINK-3725,1 52123U 22029AM  22250.25001157  .00020123  00000-0  12799-2 0  9998,2 52123  53.2166  52.7493 0001577  77.3008 193.0533 15.08808256 27773,6917.977,95.44,540.933,538.751,0.0
52123.0,STARLINK-3725,PAYLOAD,2022-09-07 14:00:01,15.08839501,0.0001629999999999,53.2167,51.2534,77.4672,204.4484,-0.0010915999999999,-0.00017619,0.0,0 STARLINK-3725,1 52123U 22029AM  22250.58334491 -.00017619  00000-0 -10916-2 0  9991,2 52123  53.2167  51.2534 0001630  77.4672 204.4484 15.08839501  1302,6917.882,95.438,540.875,538.619,0.0
52123.0,STARLINK-3725,PAYLOAD,2022-09-07 22:00:00,15.08813597,0.0001646,53.2166,49.7581,69.8871,223.6188,0.0030141,0.00047973,0.0,0 STARLINK-3725,1 52123U 22029AM  22250.91667824  .00047973  00000-0  30141-2 0  9993,2 52123  53.2166  49.7581 0001646  69.8871 223.6188 15.08813597  1309,6917.9609999999975,95.439,540.965,538.687,0.0
52123.0,STARLINK-3725,PAYLOAD,2022-09-08 14:00:01,15.08865425,0.0001571,53.217,46.764,77.3442,239.3413,-0.0013719,-0.00022071,0.0,0 STARLINK-3725,1 52123U 22029AM  22251.58334491 -.00022071  00000-0 -13719-2 0  9994,2 52123  53.2170  46.7640 0001571  77.3442 239.3413 15.08865425  1304,6917.803000000001,95.436,540.754,538.581,0.0
52123.0,STARLINK-3725,PAYLOAD,2022-09-08 22:00:00,15.08846771,0.000152,53.2167,45.2685,68.8746,259.4323,-8.705799999999999e-05,-1.674e-05,0.0,0 STARLINK-3725,1 52123U 22029AM  22251.91667824 -.00001674  00000-0 -87058-4 0  9995,2 52123  53.2167  45.2685 0001520  68.8746 259.4323 15.08846771 28023,6917.86,95.437,540.776,538.673,0.0
52123.0,STARLINK-3725,PAYLOAD,2022-09-09 14:00:01,15.0887103,0.0001382,53.2171,42.2748,75.9225,275.5751,-0.0030971999999999,-0.00049284,0.0,0 STARLINK-3725,1 52123U 22029AM  22252.58334491 -.00049284  00000-0 -30972-2 0  9990,2 52123  53.2171  42.2748 0001382  75.9225 275.5751 15.08871030  1304,6917.786,95.436,540.607,538.695,0.0
52123.0,STARLINK-3725,PAYLOAD,2022-09-09 22:00:00,15.08821378,0.0001336,53.2167,40.7791,67.185,295.9279,0.0012678,0.00019936,0.0,0 STARLINK-3725,1 52123U 22029AM  22252.91667824  .00019936  00000-0  12678-2 0  9998,2 52123  53.2167  40.7791 0001336  67.1850 295.9279 15.08821378  1307,6917.937,95.439,540.727,538.878,0.0
52123.0,STARLINK-3725,PAYLOAD,2022-09-10 04:00:00,15.08828806,0.0001249,53.2171,39.6529,74.65899999999998,207.1428,0.00021969,3.209e-05,0.0,0 STARLINK-3725,1 52123U 22029AM  22253.16667824  .00003209  00000-0  21969-3 0  9996,2 52123  53.2171  39.6529 0001249  74.6590 207.1428 15.08828806 28218,6917.915,95.438,540.644,538.9159999999998,0.0
52123.0,STARLINK-3725,PAYLOAD,2022-09-10 14:00:01,15.08873586,0.0001252999999999,53.2169,37.7857,73.2971,312.9993,-0.0030646,-0.00048775,0.0,0 STARLINK-3725,1 52123U 22029AM  22253.58334491 -.00048775  00000-0 -30646-2 0  9993,2 52123  53.2169  37.7857 0001253  73.2971 312.9993 15.08873586 28285,6917.778,95.435,540.51,538.776,0.0
52123.0,STARLINK-3725,PAYLOAD,2022-09-10 22:00:00,15.08831987,0.0001244,53.2166,36.2899,65.10600000000001,332.7928,-0.0012369,-0.00019915,0.0,0 STARLINK-3725,1 52123U 22029AM  22253.91667824 -.00019915  00000-0 -12369-2 0  9995,2 52123  53.2166  36.2899 0001244  65.1060 332.7928 15.08831987  1302,6917.905,95.438,540.63,538.909,0.0
52123.0,STARLINK-3725,PAYLOAD,2022-09-11 14:00:01,15.08835489,0.0001309,53.2169,33.2969,72.2004,348.8548,-0.0011851,-0.00019097,0.0,0 STARLINK-3725,1 52123U 22029AM  22254.58334491 -.00019097  00000-0 -11851-2 0  9996,2 52123  53.2169  33.2969 0001309  72.2004 348.8548 15.08835489 28439,6917.894,95.438,540.665,538.854,0.0
